2025-313AE              
1 67276U 25313AE  26019.59694349  .00007170  00000+0  33226-3 0  9992
2 67276  97.4081  96.6794 0014880 163.3289 196.8438 15.20286042  3353
2025-313AF              
1 67277U 25313AF  26019.59726987  .00006432  00000+0  29878-3 0  9995
2 67277  97.4082  96.6797 0014855 163.2059 196.9671 15.20246732  3356
2025-313AG              
1 67278U 25313AG  26019.59705554  .00006534  00000+0  30331-3 0  9992
2 67278  97.4086  96.6808 0014829 163.0287 197.1447 15.20264484  3365
GALAPAGOS-UTE-SWSU      
1 67279U 25313AH  26019.59621451  .00007833  00000+0  36193-3 0  9991
2 67279  97.4096  96.6849 0015382 160.1627 200.0210 15.20348543  3353
2025-313AJ              
1 67280U 25313AJ  26019.59146429  .00005658  00000+0  26042-3 0  9995
2 67280  97.4165  96.6989 0014298 157.0162 203.1716 15.20624837  3359
2025-313AK              
1 67281U 25313AK  26019.59015056  .00005707  00000+0  26205-3 0  9993
2 67281  97.4049  96.6778 0013017 155.8715 204.3133 15.20716937  3354
2025-313AL              
1 67282U 25313AL  26019.65061725  .00005865  00000+0  26638-3 0  9990
2 67282  97.4098  96.7518 0011799 154.6295 205.5522 15.21097830  3368
HORS 5                  
1 67283U 25313AM  26019.64937795  .00008682  00000+0  39088-3 0  9992
2 67283  97.4106  96.7560 0011654 154.5629 205.6183 15.21254278  3361
LOBACHEVSKY (RS83S)     
1 67284U 25313AN  26019.65091223  .00003860  00000+0  17675-3 0  9992
2 67284  97.4091  96.7491 0011693 154.5397 205.6417 15.21027898  3369
NASBSAT-2               
1 67285U 25313AP  26019.64840536  .00008301  00000+0  37334-3 0  9990
2 67285  97.4084  96.7499 0011279 155.9957 204.1807 15.21309637  3368
2025-313AQ              
1 67286U 25313AQ  26019.64785942  .00009038  00000+0  40628-3 0  9998
2 67286  97.4105  96.7654 0010978 151.0532 209.1315 15.21302515  3364
LUCA (RS90S)            
1 67287U 25313AR  26019.64688929  .00009748  00000+0  43619-3 0  9997
2 67287  97.4104  96.7672 0010876 152.7626 207.4183 15.21438167  3360
