CCSDS_OMM_VERS = 2.0
CREATION_DATE  = 
ORIGINATOR     = 

OBJECT_NAME    = 2025-313AE
OBJECT_ID      = 2025-313AE
CENTER_NAME    = EARTH
REF_FRAME      = TEME
TIME_SYSTEM    = UTC
MEAN_ELEMENT_THEORY = SGP/SGP4

EPOCH          = 2026-01-19T14:19:35.917536
MEAN_MOTION    = 15.20286042
ECCENTRICITY   = .001488
INCLINATION    = 97.4081
RA_OF_ASC_NODE = 96.6794
ARG_OF_PERICENTER = 163.3289
MEAN_ANOMALY   = 196.8438

EPHEMERIS_TYPE = 0
CLASSIFICATION_TYPE = U
NORAD_CAT_ID   = 67276
ELEMENT_SET_NO = 999
REV_AT_EPOCH   = 335
BSTAR          = .33225548E-3
MEAN_MOTION_DOT = .717E-4
MEAN_MOTION_DDOT = 0

CCSDS_OMM_VERS = 2.0
CREATION_DATE  = 
ORIGINATOR     = 

OBJECT_NAME    = 2025-313AF
OBJECT_ID      = 2025-313AF
CENTER_NAME    = EARTH
REF_FRAME      = TEME
TIME_SYSTEM    = UTC
MEAN_ELEMENT_THEORY = SGP/SGP4

EPOCH          = 2026-01-19T14:20:04.116768
MEAN_MOTION    = 15.20246732
ECCENTRICITY   = .00148559
INCLINATION    = 97.4082
RA_OF_ASC_NODE = 96.6797
ARG_OF_PERICENTER = 163.2059
MEAN_ANOMALY   = 196.9671

EPHEMERIS_TYPE = 0
CLASSIFICATION_TYPE = U
NORAD_CAT_ID   = 67277
ELEMENT_SET_NO = 999
REV_AT_EPOCH   = 335
BSTAR          = .29877703E-3
MEAN_MOTION_DOT = .6432E-4
MEAN_MOTION_DDOT = 0

CCSDS_OMM_VERS = 2.0
CREATION_DATE  = 
ORIGINATOR     = 

OBJECT_NAME    = 2025-313AG
OBJECT_ID      = 2025-313AG
CENTER_NAME    = EARTH
REF_FRAME      = TEME
TIME_SYSTEM    = UTC
MEAN_ELEMENT_THEORY = SGP/SGP4

EPOCH          = 2026-01-19T14:19:45.598656
MEAN_MOTION    = 15.20264484
ECCENTRICITY   = .00148293
INCLINATION    = 97.4086
RA_OF_ASC_NODE = 96.6808
ARG_OF_PERICENTER = 163.0287
MEAN_ANOMALY   = 197.1447

EPHEMERIS_TYPE = 0
CLASSIFICATION_TYPE = U
NORAD_CAT_ID   = 67278
ELEMENT_SET_NO = 999
REV_AT_EPOCH   = 336
BSTAR          = .30330748E-3
MEAN_MOTION_DOT = .6534E-4
MEAN_MOTION_DDOT = 0

CCSDS_OMM_VERS = 2.0
CREATION_DATE  = 
ORIGINATOR     = 

OBJECT_NAME    = GALAPAGOS-UTE-SWSU
OBJECT_ID      = 2025-313AH
CENTER_NAME    = EARTH
REF_FRAME      = TEME
TIME_SYSTEM    = UTC
MEAN_ELEMENT_THEORY = SGP/SGP4

EPOCH          = 2026-01-19T14:18:32.933664
MEAN_MOTION    = 15.20348543
ECCENTRICITY   = .00153829
INCLINATION    = 97.4096
RA_OF_ASC_NODE = 96.6849
ARG_OF_PERICENTER = 160.1627
MEAN_ANOMALY   = 200.0210

EPHEMERIS_TYPE = 0
CLASSIFICATION_TYPE = U
NORAD_CAT_ID   = 67279
ELEMENT_SET_NO = 999
REV_AT_EPOCH   = 335
BSTAR          = .36192651E-3
MEAN_MOTION_DOT = .7833E-4
MEAN_MOTION_DDOT = 0

CCSDS_OMM_VERS = 2.0
CREATION_DATE  = 
ORIGINATOR     = 

OBJECT_NAME    = 2025-313AJ
OBJECT_ID      = 2025-313AJ
CENTER_NAME    = EARTH
REF_FRAME      = TEME
TIME_SYSTEM    = UTC
MEAN_ELEMENT_THEORY = SGP/SGP4

EPOCH          = 2026-01-19T14:11:42.514656
MEAN_MOTION    = 15.20624837
ECCENTRICITY   = .00142987
INCLINATION    = 97.4165
RA_OF_ASC_NODE = 96.6989
ARG_OF_PERICENTER = 157.0162
MEAN_ANOMALY   = 203.1716

EPHEMERIS_TYPE = 0
CLASSIFICATION_TYPE = U
NORAD_CAT_ID   = 67280
ELEMENT_SET_NO = 999
REV_AT_EPOCH   = 335
BSTAR          = .26041933E-3
MEAN_MOTION_DOT = .5658E-4
MEAN_MOTION_DDOT = 0

CCSDS_OMM_VERS = 2.0
CREATION_DATE  = 
ORIGINATOR     = 

OBJECT_NAME    = 2025-313AK
OBJECT_ID      = 2025-313AK
CENTER_NAME    = EARTH
REF_FRAME      = TEME
TIME_SYSTEM    = UTC
MEAN_ELEMENT_THEORY = SGP/SGP4

EPOCH          = 2026-01-19T14:09:49.008384
MEAN_MOTION    = 15.20716937
ECCENTRICITY   = .00130179
INCLINATION    = 97.4049
RA_OF_ASC_NODE = 96.6778
ARG_OF_PERICENTER = 155.8715
MEAN_ANOMALY   = 204.3133

EPHEMERIS_TYPE = 0
CLASSIFICATION_TYPE = U
NORAD_CAT_ID   = 67281
ELEMENT_SET_NO = 999
REV_AT_EPOCH   = 335
BSTAR          = .26204534E-3
MEAN_MOTION_DOT = .5707E-4
MEAN_MOTION_DDOT = 0

CCSDS_OMM_VERS = 2.0
CREATION_DATE  = 
ORIGINATOR     = 

OBJECT_NAME    = 2025-313AL
OBJECT_ID      = 2025-313AL
CENTER_NAME    = EARTH
REF_FRAME      = TEME
TIME_SYSTEM    = UTC
MEAN_ELEMENT_THEORY = SGP/SGP4

EPOCH          = 2026-01-19T15:36:53.330400
MEAN_MOTION    = 15.21097830
ECCENTRICITY   = .00117992
INCLINATION    = 97.4098
RA_OF_ASC_NODE = 96.7518
ARG_OF_PERICENTER = 154.6295
MEAN_ANOMALY   = 205.5522

EPHEMERIS_TYPE = 0
CLASSIFICATION_TYPE = U
NORAD_CAT_ID   = 67282
ELEMENT_SET_NO = 999
REV_AT_EPOCH   = 336
BSTAR          = .26638095E-3
MEAN_MOTION_DOT = .5865E-4
MEAN_MOTION_DDOT = 0

CCSDS_OMM_VERS = 2.0
CREATION_DATE  = 
ORIGINATOR     = 

OBJECT_NAME    = HORS 5
OBJECT_ID      = 2025-313AM
CENTER_NAME    = EARTH
REF_FRAME      = TEME
TIME_SYSTEM    = UTC
MEAN_ELEMENT_THEORY = SGP/SGP4

EPOCH          = 2026-01-19T15:35:06.254880
MEAN_MOTION    = 15.21254278
ECCENTRICITY   = .00116549
INCLINATION    = 97.4106
RA_OF_ASC_NODE = 96.7560
ARG_OF_PERICENTER = 154.5629
MEAN_ANOMALY   = 205.6183

EPHEMERIS_TYPE = 0
CLASSIFICATION_TYPE = U
NORAD_CAT_ID   = 67283
ELEMENT_SET_NO = 999
REV_AT_EPOCH   = 336
BSTAR          = .39088128E-3
MEAN_MOTION_DOT = .8682E-4
MEAN_MOTION_DDOT = 0

CCSDS_OMM_VERS = 2.0
CREATION_DATE  = 
ORIGINATOR     = 

OBJECT_NAME    = LOBACHEVSKY (RS83S)
OBJECT_ID      = 2025-313AN
CENTER_NAME    = EARTH
REF_FRAME      = TEME
TIME_SYSTEM    = UTC
MEAN_ELEMENT_THEORY = SGP/SGP4

EPOCH          = 2026-01-19T15:37:18.816672
MEAN_MOTION    = 15.21027898
ECCENTRICITY   = .00116931
INCLINATION    = 97.4091
RA_OF_ASC_NODE = 96.7491
ARG_OF_PERICENTER = 154.5397
MEAN_ANOMALY   = 205.6417

EPHEMERIS_TYPE = 0
CLASSIFICATION_TYPE = U
NORAD_CAT_ID   = 67284
ELEMENT_SET_NO = 999
REV_AT_EPOCH   = 336
BSTAR          = .17675499E-3
MEAN_MOTION_DOT = .386E-4
MEAN_MOTION_DDOT = 0

CCSDS_OMM_VERS = 2.0
CREATION_DATE  = 
ORIGINATOR     = 

OBJECT_NAME    = NASBSAT-2
OBJECT_ID      = 2025-313AP
CENTER_NAME    = EARTH
REF_FRAME      = TEME
TIME_SYSTEM    = UTC
MEAN_ELEMENT_THEORY = SGP/SGP4

EPOCH          = 2026-01-19T15:33:42.223104
MEAN_MOTION    = 15.21309637
ECCENTRICITY   = .00112793
INCLINATION    = 97.4084
RA_OF_ASC_NODE = 96.7499
ARG_OF_PERICENTER = 155.9957
MEAN_ANOMALY   = 204.1807

EPHEMERIS_TYPE = 0
CLASSIFICATION_TYPE = U
NORAD_CAT_ID   = 67285
ELEMENT_SET_NO = 999
REV_AT_EPOCH   = 336
BSTAR          = .37333686E-3
MEAN_MOTION_DOT = .8301E-4
MEAN_MOTION_DDOT = 0

CCSDS_OMM_VERS = 2.0
CREATION_DATE  = 
ORIGINATOR     = 

OBJECT_NAME    = 2025-313AQ
OBJECT_ID      = 2025-313AQ
CENTER_NAME    = EARTH
REF_FRAME      = TEME
TIME_SYSTEM    = UTC
MEAN_ELEMENT_THEORY = SGP/SGP4

EPOCH          = 2026-01-19T15:32:55.053888
MEAN_MOTION    = 15.21302515
ECCENTRICITY   = .0010978
INCLINATION    = 97.4105
RA_OF_ASC_NODE = 96.7654
ARG_OF_PERICENTER = 151.0532
MEAN_ANOMALY   = 209.1315

EPHEMERIS_TYPE = 0
CLASSIFICATION_TYPE = U
NORAD_CAT_ID   = 67286
ELEMENT_SET_NO = 999
REV_AT_EPOCH   = 336
BSTAR          = .40628134E-3
MEAN_MOTION_DOT = .9038E-4
MEAN_MOTION_DDOT = 0

CCSDS_OMM_VERS = 2.0
CREATION_DATE  = 
ORIGINATOR     = 

OBJECT_NAME    = LUCA (RS90S)
OBJECT_ID      = 2025-313AR
CENTER_NAME    = EARTH
REF_FRAME      = TEME
TIME_SYSTEM    = UTC
MEAN_ELEMENT_THEORY = SGP/SGP4

EPOCH          = 2026-01-19T15:31:31.234656
MEAN_MOTION    = 15.21438167
ECCENTRICITY   = .00108762
INCLINATION    = 97.4104
RA_OF_ASC_NODE = 96.7672
ARG_OF_PERICENTER = 152.7626
MEAN_ANOMALY   = 207.4183

EPHEMERIS_TYPE = 0
CLASSIFICATION_TYPE = U
NORAD_CAT_ID   = 67287
ELEMENT_SET_NO = 999
REV_AT_EPOCH   = 336
BSTAR          = .43618595E-3
MEAN_MOTION_DOT = .9748E-4
MEAN_MOTION_DDOT = 0

